[{"OBJECT_NAME":"TIANMU-1 19","OBJECT_ID":"2023-208A","EPOCH":"2026-03-09T22:13:36.801696","MEAN_MOTION":15.2984143,"ECCENTRICITY":0.00039292,"INCLINATION":97.4383,"RA_OF_ASC_NODE":184.9132,"ARG_OF_PERICENTER":316.2611,"MEAN_ANOMALY":43.8317,"EPHEMERIS_TYPE":0,"CLASSIFICATION_TYPE":"U","NORAD_CAT_ID":58660,"ELEMENT_SET_NO":999,"REV_AT_EPOCH":12214,"BSTAR":0.00040995676,"MEAN_MOTION_DOT":0.00011779,"MEAN_MOTION_DDOT":0},{"OBJECT_NAME":"STARLINK-31466","OBJECT_ID":"2024-064Y","EPOCH":"2026-03-09T07:26:52.632960","MEAN_MOTION":15.27564482,"ECCENTRICITY":0.00018687,"INCLINATION":43.0047,"RA_OF_ASC_NODE":58.6662,"ARG_OF_PERICENTER":251.4597,"MEAN_ANOMALY":108.6052,"EPHEMERIS_TYPE":0,"CLASSIFICATION_TYPE":"U","NORAD_CAT_ID":59420,"ELEMENT_SET_NO":999,"REV_AT_EPOCH":10916,"BSTAR":0.00011377784,"MEAN_MOTION_DOT":2.868e-5,"MEAN_MOTION_DDOT":0}]
